{
  "type": "FeatureCollection",
  "features": [
    {
      "type": "Feature",
      "properties": {
        "norad_id": 35650,
        "name": "COSMOS 2251 DEB",
        "group": "cosmos-2251-debris",
        "lat": 0.706389447731213,
        "lon": -172.31964112450018,
        "alt_km": 626.1722397615304,
        "timestamp": "2025-12-18T07:01:54.985988+00:00",
        "meta_object_name": "COSMOS 2251 DEB",
        "meta_object_id": "1993-036ANR",
        "meta_epoch": "2025-12-17T01:14:19.188672",
        "meta_mean_motion": 14.83736192,
        "meta_eccentricity": 0.00147994,
        "meta_inclination": 74.0453,
        "meta_ra_of_asc_node": 10.3396,
        "meta_arg_of_pericenter": 55.6192,
        "meta_mean_anomaly": 335.3159,
        "meta_ephemeris_type": 0,
        "meta_classification_type": "U",
        "meta_norad_cat_id": 35650,
        "meta_element_set_no": 999,
        "meta_rev_at_epoch": 87698,
        "meta_bstar": 0.0012779207,
        "meta_mean_motion_dot": 0.00010575,
        "meta_mean_motion_ddot": 0,
        "tle_line1": "1 35650U 93036ANR 25351.05161098  .00010575  00000+0  12779-2 0  9991",
        "tle_line2": "2 35650  74.0453  10.3396 0014799  55.6192 335.3159 14.83736192876985"
      },
      "geometry": {
        "type": "Point",
        "coordinates": [
          -172.31964112450018,
          0.706389447731213
        ]
      }
    },
    {
      "type": "Feature",
      "properties": {
        "norad_id": 35660,
        "name": "COSMOS 2251 DEB",
        "group": "cosmos-2251-debris",
        "lat": 17.68380923231875,
        "lon": -62.43055140822732,
        "alt_km": 730.0655678004914,
        "timestamp": "2025-12-18T07:01:54.985998+00:00",
        "meta_object_name": "COSMOS 2251 DEB",
        "meta_object_id": "1993-036APB",
        "meta_epoch": "2025-12-15T02:38:46.156416",
        "meta_mean_motion": 14.49937403,
        "meta_eccentricity": 0.00182984,
        "meta_inclination": 74.0379,
        "meta_ra_of_asc_node": 128.7781,
        "meta_arg_of_pericenter": 277.071,
        "meta_mean_anomaly": 198.1224,
        "meta_ephemeris_type": 0,
        "meta_classification_type": "U",
        "meta_norad_cat_id": 35660,
        "meta_element_set_no": 999,
        "meta_rev_at_epoch": 65905,
        "meta_bstar": 0.00040464315,
        "meta_mean_motion_dot": 1.541e-05,
        "meta_mean_motion_ddot": 0,
        "tle_line1": "1 35660U 93036APB 25349.11025644  .00001541  00000+0  40464-3 0  9998",
        "tle_line2": "2 35660  74.0379 128.7781 0018298 277.0710 198.1224 14.49937403659054"
      },
      "geometry": {
        "type": "Point",
        "coordinates": [
          -62.43055140822732,
          17.68380923231875
        ]
      }
    },
    {
      "type": "Feature",
      "properties": {
        "norad_id": 35661,
        "name": "COSMOS 2251 DEB",
        "group": "cosmos-2251-debris",
        "lat": 8.317842533357094,
        "lon": -113.74009945003972,
        "alt_km": 548.7831736559356,
        "timestamp": "2025-12-18T07:01:54.986008+00:00",
        "meta_object_name": "COSMOS 2251 DEB",
        "meta_object_id": "1993-036APC",
        "meta_epoch": "2025-12-16T12:16:23.385792",
        "meta_mean_motion": 14.8663012,
        "meta_eccentricity": 0.00875232,
        "meta_inclination": 74.0143,
        "meta_ra_of_asc_node": 72.2117,
        "meta_arg_of_pericenter": 175.4802,
        "meta_mean_anomaly": 184.719,
        "meta_ephemeris_type": 0,
        "meta_classification_type": "U",
        "meta_norad_cat_id": 35661,
        "meta_element_set_no": 999,
        "meta_rev_at_epoch": 87924,
        "meta_bstar": 0.00065700451,
        "meta_mean_motion_dot": 6.22e-05,
        "meta_mean_motion_ddot": 0,
        "tle_line1": "1 35661U 93036APC 25350.51138178  .00006220  00000+0  65700-3 0  9991",
        "tle_line2": "2 35661  74.0143  72.2117 0087523 175.4802 184.7190 14.86630120879245"
      },
      "geometry": {
        "type": "Point",
        "coordinates": [
          -113.74009945003972,
          8.317842533357094
        ]
      }
    },
    {
      "type": "Feature",
      "properties": {
        "norad_id": 35663,
        "name": "COSMOS 2251 DEB",
        "group": "cosmos-2251-debris",
        "lat": 0.04155983347824559,
        "lon": 113.97462257638493,
        "alt_km": 681.5095776278094,
        "timestamp": "2025-12-18T07:01:54.986018+00:00",
        "meta_object_name": "COSMOS 2251 DEB",
        "meta_object_id": "1993-036APE",
        "meta_epoch": "2025-12-13T02:32:21.539904",
        "meta_mean_motion": 14.65684168,
        "meta_eccentricity": 0.00063461,
        "meta_inclination": 74.0174,
        "meta_ra_of_asc_node": 123.959,
        "meta_arg_of_pericenter": 198.7091,
        "meta_mean_anomaly": 161.3846,
        "meta_ephemeris_type": 0,
        "meta_classification_type": "U",
        "meta_norad_cat_id": 35663,
        "meta_element_set_no": 999,
        "meta_rev_at_epoch": 73387,
        "meta_bstar": 0.0025042609,
        "meta_mean_motion_dot": 0.00013628,
        "meta_mean_motion_ddot": 0,
        "tle_line1": "1 35663U 93036APE 25347.10580486  .00013628  00000+0  25043-2 0  9992",
        "tle_line2": "2 35663  74.0174 123.9590 0006346 198.7091 161.3846 14.65684168733877"
      },
      "geometry": {
        "type": "Point",
        "coordinates": [
          113.97462257638493,
          0.04155983347824559
        ]
      }
    },
    {
      "type": "Feature",
      "properties": {
        "norad_id": 35667,
        "name": "COSMOS 2251 DEB",
        "group": "cosmos-2251-debris",
        "lat": -60.73812954820321,
        "lon": 98.84603849179065,
        "alt_km": 703.3289024617861,
        "timestamp": "2025-12-18T07:01:54.986028+00:00",
        "meta_object_name": "COSMOS 2251 DEB",
        "meta_object_id": "1993-036APJ",
        "meta_epoch": "2025-12-14T16:10:30.846432",
        "meta_mean_motion": 14.60047432,
        "meta_eccentricity": 0.00195944,
        "meta_inclination": 74.0556,
        "meta_ra_of_asc_node": 136.4208,
        "meta_arg_of_pericenter": 197.4569,
        "meta_mean_anomaly": 162.5926,
        "meta_ephemeris_type": 0,
        "meta_classification_type": "U",
        "meta_norad_cat_id": 35667,
        "meta_element_set_no": 999,
        "meta_rev_at_epoch": 70831,
        "meta_bstar": 0.0010671241,
        "meta_mean_motion_dot": 5.114e-05,
        "meta_mean_motion_ddot": 0,
        "tle_line1": "1 35667U 93036APJ 25348.67396813  .00005114  00000+0  10671-2 0  9990",
        "tle_line2": "2 35667  74.0556 136.4208 0019594 197.4569 162.5926 14.60047432708310"
      },
      "geometry": {
        "type": "Point",
        "coordinates": [
          98.84603849179065,
          -60.73812954820321
        ]
      }
    },
    {
      "type": "Feature",
      "properties": {
        "norad_id": 35668,
        "name": "COSMOS 2251 DEB",
        "group": "cosmos-2251-debris",
        "lat": 49.56342942800721,
        "lon": 10.251410780795695,
        "alt_km": 733.7887769564841,
        "timestamp": "2025-12-18T07:01:54.986038+00:00",
        "meta_object_name": "COSMOS 2251 DEB",
        "meta_object_id": "1993-036APK",
        "meta_epoch": "2025-12-10T09:50:46.743936",
        "meta_mean_motion": 14.63977041,
        "meta_eccentricity": 0.00831886,
        "meta_inclination": 74.0449,
        "meta_ra_of_asc_node": 224.9926,
        "meta_arg_of_pericenter": 330.6481,
        "meta_mean_anomaly": 29.0026,
        "meta_ephemeris_type": 0,
        "meta_classification_type": "U",
        "meta_norad_cat_id": 35668,
        "meta_element_set_no": 999,
        "meta_rev_at_epoch": 87613,
        "meta_bstar": 0.00039699898,
        "meta_mean_motion_dot": 2.154e-05,
        "meta_mean_motion_ddot": 0,
        "tle_line1": "1 35668U 93036APK 25344.41026324  .00002154  00000+0  39700-3 0  9992",
        "tle_line2": "2 35668  74.0449 224.9926 0083188 330.6481  29.0026 14.63977041876131"
      },
      "geometry": {
        "type": "Point",
        "coordinates": [
          10.251410780795695,
          49.56342942800721
        ]
      }
    },
    {
      "type": "Feature",
      "properties": {
        "norad_id": 35669,
        "name": "COSMOS 2251 DEB",
        "group": "cosmos-2251-debris",
        "lat": 48.41490235027188,
        "lon": -48.714352984728684,
        "alt_km": 1228.918855988497,
        "timestamp": "2025-12-18T07:01:54.986048+00:00",
        "meta_object_name": "COSMOS 2251 DEB",
        "meta_object_id": "1993-036APL",
        "meta_epoch": "2025-12-16T04:49:40.984320",
        "meta_mean_motion": 13.57162572,
        "meta_eccentricity": 0.03877654,
        "meta_inclination": 73.8585,
        "meta_ra_of_asc_node": 153.7447,
        "meta_arg_of_pericenter": 264.9065,
        "meta_mean_anomaly": 90.7689,
        "meta_ephemeris_type": 0,
        "meta_classification_type": "U",
        "meta_norad_cat_id": 35669,
        "meta_element_set_no": 999,
        "meta_rev_at_epoch": 60836,
        "meta_bstar": 0.0008243538,
        "meta_mean_motion_dot": 9.32e-06,
        "meta_mean_motion_ddot": 0,
        "tle_line1": "1 35669U 93036APL 25350.20116880  .00000932  00000+0  82435-3 0  9999",
        "tle_line2": "2 35669  73.8585 153.7447 0387765 264.9065  90.7689 13.57162572608367"
      },
      "geometry": {
        "type": "Point",
        "coordinates": [
          -48.714352984728684,
          48.41490235027188
        ]
      }
    }
  ]
}